[{"OBJECT_NAME":"ONEWEB-0060","OBJECT_ID":"2020-020AH","EPOCH":"2026-04-12T06:03:42.067008","MEAN_MOTION":13.11418898,"ECCENTRICITY":0.0002688,"INCLINATION":87.8919,"RA_OF_ASC_NODE":34.1727,"ARG_OF_PERICENTER":95.3626,"MEAN_ANOMALY":264.7809,"EPHEMERIS_TYPE":0,"CLASSIFICATION_TYPE":"U","NORAD_CAT_ID":45455,"ELEMENT_SET_NO":999,"REV_AT_EPOCH":29390,"BSTAR":0.0014774000000000002,"MEAN_MOTION_DOT":5.36e-06,"MEAN_MOTION_DDOT":0.0},{"OBJECT_NAME":"ONEWEB-0086","OBJECT_ID":"2020-020AJ","EPOCH":"2026-04-12T05:33:10.502784","MEAN_MOTION":13.11417473,"ECCENTRICITY":0.000261,"INCLINATION":87.8926,"RA_OF_ASC_NODE":34.1675,"ARG_OF_PERICENTER":79.7134,"MEAN_ANOMALY":280.4288,"EPHEMERIS_TYPE":0,"CLASSIFICATION_TYPE":"U","NORAD_CAT_ID":45456,"ELEMENT_SET_NO":999,"REV_AT_EPOCH":29396,"BSTAR":-0.0007564300000000001,"MEAN_MOTION_DOT":-2.55e-06,"MEAN_MOTION_DDOT":0.0},{"OBJECT_NAME":"ONEWEB-0088","OBJECT_ID":"2020-020AK","EPOCH":"2026-04-12T01:21:42.733440","MEAN_MOTION":13.11416019,"ECCENTRICITY":0.0001535,"INCLINATION":87.8933,"RA_OF_ASC_NODE":34.1692,"ARG_OF_PERICENTER":83.8395,"MEAN_ANOMALY":276.2908,"EPHEMERIS_TYPE":0,"CLASSIFICATION_TYPE":"U","NORAD_CAT_ID":45457,"ELEMENT_SET_NO":999,"REV_AT_EPOCH":29387,"BSTAR":-0.0011447,"MEAN_MOTION_DOT":-3.93e-06,"MEAN_MOTION_DDOT":0.0},{"OBJECT_NAME":"ONEWEB-0102","OBJECT_ID":"2020-100A","EPOCH":"2026-04-12T06:21:40.104864","MEAN_MOTION":13.12440315,"ECCENTRICITY":0.000205,"INCLINATION":87.9005,"RA_OF_ASC_NODE":3.7735,"ARG_OF_PERICENTER":78.4822,"MEAN_ANOMALY":281.6537,"EPHEMERIS_TYPE":0,"CLASSIFICATION_TYPE":"U","NORAD_CAT_ID":47258,"ELEMENT_SET_NO":999,"REV_AT_EPOCH":25608,"BSTAR":0.00071651,"MEAN_MOTION_DOT":2.7e-06,"MEAN_MOTION_DDOT":0.0},{"OBJECT_NAME":"ONEWEB-0109","OBJECT_ID":"2020-100B","EPOCH":"2026-04-12T04:44:05.068032","MEAN_MOTION":13.12441107,"ECCENTRICITY":0.0001823,"INCLINATION":87.901,"RA_OF_ASC_NODE":3.7643,"ARG_OF_PERICENTER":74.3345,"MEAN_ANOMALY":285.7984,"EPHEMERIS_TYPE":0,"CLASSIFICATION_TYPE":"U","NORAD_CAT_ID":47259,"ELEMENT_SET_NO":999,"REV_AT_EPOCH":25590,"BSTAR":-0.00036967,"MEAN_MOTION_DOT":-1.2e-06,"MEAN_MOTION_DDOT":0.0},{"OBJECT_NAME":"ONEWEB-0110","OBJECT_ID":"2020-100C","EPOCH":"2026-04-12T03:33:20.484864","MEAN_MOTION":13.12442836,"ECCENTRICITY":0.0002069,"INCLINATION":87.9016,"RA_OF_ASC_NODE":3.7586,"ARG_OF_PERICENTER":80.677,"MEAN_ANOMALY":279.4592,"EPHEMERIS_TYPE":0,"CLASSIFICATION_TYPE":"U","NORAD_CAT_ID":47260,"ELEMENT_SET_NO":999,"REV_AT_EPOCH":25606,"BSTAR":-0.0006241,"MEAN_MOTION_DOT":-2.12e-06,"MEAN_MOTION_DDOT":0.0},{"OBJECT_NAME":"ONEWEB-0111","OBJECT_ID":"2020-100D","EPOCH":"2026-04-12T06:07:02.170272","MEAN_MOTION":13.12441932,"ECCENTRICITY":0.0001824,"INCLINATION":87.9012,"RA_OF_ASC_NODE":3.7561,"ARG_OF_PERICENTER":82.0387,"MEAN_ANOMALY":278.0949,"EPHEMERIS_TYPE":0,"CLASSIFICATION_TYPE":"U","NORAD_CAT_ID":47261,"ELEMENT_SET_NO":999,"REV_AT_EPOCH":25591,"BSTAR":0.0012146,"MEAN_MOTION_DOT":4.5e-06,"MEAN_MOTION_DDOT":0.0},{"OBJECT_NAME":"ONEWEB-0114","OBJECT_ID":"2020-100E","EPOCH":"2026-04-12T03:11:21.905952","MEAN_MOTION":13.12441023,"ECCENTRICITY":0.0001361,"INCLINATION":87.9018,"RA_OF_ASC_NODE":3.7764,"ARG_OF_PERICENTER":66.5096,"MEAN_ANOMALY":293.6175,"EPHEMERIS_TYPE":0,"CLASSIFICATION_TYPE":"U","NORAD_CAT_ID":47262,"ELEMENT_SET_NO":999,"REV_AT_EPOCH":25585,"BSTAR":-0.00074603,"MEAN_MOTION_DOT":-2.56e-06,"MEAN_MOTION_DDOT":0.0},{"OBJECT_NAME":"ONEWEB-0117","OBJECT_ID":"2020-100F","EPOCH":"2026-04-12T02:59:10.205088","MEAN_MOTION":13.12440724,"ECCENTRICITY":0.0001824,"INCLINATION":87.9006,"RA_OF_ASC_NODE":3.7711,"ARG_OF_PERICENTER":78.3254,"MEAN_ANOMALY":281.8079,"EPHEMERIS_TYPE":0,"CLASSIFICATION_TYPE":"U","NORAD_CAT_ID":47263,"ELEMENT_SET_NO":999,"REV_AT_EPOCH":25586,"BSTAR":-0.0006681,"MEAN_MOTION_DOT":-2.28e-06,"MEAN_MOTION_DDOT":0.0},{"OBJECT_NAME":"ONEWEB-0118","OBJECT_ID":"2020-100G","EPOCH":"2026-04-11T11:19:56.617248","MEAN_MOTION":13.12442461,"ECCENTRICITY":0.0001471,"INCLINATION":87.9013,"RA_OF_ASC_NODE":3.9029,"ARG_OF_PERICENTER":74.5533,"MEAN_ANOMALY":285.5758,"EPHEMERIS_TYPE":0,"CLASSIFICATION_TYPE":"U","NORAD_CAT_ID":47264,"ELEMENT_SET_NO":999,"REV_AT_EPOCH":25597,"BSTAR":0.00072937,"MEAN_MOTION_DOT":2.75e-06,"MEAN_MOTION_DDOT":0.0},{"OBJECT_NAME":"ONEWEB-0119","OBJECT_ID":"2020-100H","EPOCH":"2026-04-12T06:14:21.307776","MEAN_MOTION":13.12441442,"ECCENTRICITY":0.0001792,"INCLINATION":87.9001,"RA_OF_ASC_NODE":3.7696,"ARG_OF_PERICENTER":78.104,"MEAN_ANOMALY":282.0289,"EPHEMERIS_TYPE":0,"CLASSIFICATION_TYPE":"U","NORAD_CAT_ID":47265,"ELEMENT_SET_NO":999,"REV_AT_EPOCH":25605,"BSTAR":0.00098044,"MEAN_MOTION_DOT":3.65e-06,"MEAN_MOTION_DDOT":0.0},{"OBJECT_NAME":"ONEWEB-0120","OBJECT_ID":"2020-100J","EPOCH":"2026-04-12T03:09:07.526304","MEAN_MOTION":13.12441655,"ECCENTRICITY":0.0001741,"INCLINATION":87.9003,"RA_OF_ASC_NODE":3.7958,"ARG_OF_PERICENTER":75.3812,"MEAN_ANOMALY":284.751,"EPHEMERIS_TYPE":0,"CLASSIFICATION_TYPE":"U","NORAD_CAT_ID":47266,"ELEMENT_SET_NO":999,"REV_AT_EPOCH":25606,"BSTAR":-0.00099014,"MEAN_MOTION_DOT":-3.43e-06,"MEAN_MOTION_DDOT":0.0},{"OBJECT_NAME":"ONEWEB-0121","OBJECT_ID":"2020-100K","EPOCH":"2026-04-12T02:51:51.523776","MEAN_MOTION":13.12440076,"ECCENTRICITY":0.0001995,"INCLINATION":87.9012,"RA_OF_ASC_NODE":3.7779,"ARG_OF_PERICENTER":81.8652,"MEAN_ANOMALY":278.2703,"EPHEMERIS_TYPE":0,"CLASSIFICATION_TYPE":"U","NORAD_CAT_ID":47267,"ELEMENT_SET_NO":999,"REV_AT_EPOCH":25597,"BSTAR":-0.00013336,"MEAN_MOTION_DOT":-3.5e-07,"MEAN_MOTION_DDOT":0.0},{"OBJECT_NAME":"ONEWEB-0122","OBJECT_ID":"2020-100L","EPOCH":"2026-04-12T06:22:53.436000","MEAN_MOTION":13.12442752,"ECCENTRICITY":0.0001749,"INCLINATION":87.9017,"RA_OF_ASC_NODE":3.7519,"ARG_OF_PERICENTER":78.4839,"MEAN_ANOMALY":281.6486,"EPHEMERIS_TYPE":0,"CLASSIFICATION_TYPE":"U","NORAD_CAT_ID":47268,"ELEMENT_SET_NO":999,"REV_AT_EPOCH":25590,"BSTAR":0.0006665299999999999,"MEAN_MOTION_DOT":2.52e-06,"MEAN_MOTION_DDOT":0.0},{"OBJECT_NAME":"ONEWEB-0123","OBJECT_ID":"2020-100M","EPOCH":"2026-04-12T06:16:47.378208","MEAN_MOTION":13.12441148,"ECCENTRICITY":0.0001673,"INCLINATION":87.9002,"RA_OF_ASC_NODE":3.7681,"ARG_OF_PERICENTER":78.9118,"MEAN_ANOMALY":281.2199,"EPHEMERIS_TYPE":0,"CLASSIFICATION_TYPE":"U","NORAD_CAT_ID":47269,"ELEMENT_SET_NO":999,"REV_AT_EPOCH":25604,"BSTAR":0.0009193700000000001,"MEAN_MOTION_DOT":3.43e-06,"MEAN_MOTION_DDOT":0.0},{"OBJECT_NAME":"ONEWEB-0124","OBJECT_ID":"2020-100N","EPOCH":"2026-04-12T06:02:09.557664","MEAN_MOTION":13.12442079,"ECCENTRICITY":0.000181,"INCLINATION":87.9003,"RA_OF_ASC_NODE":3.7741,"ARG_OF_PERICENTER":83.2995,"MEAN_ANOMALY":276.834,"EPHEMERIS_TYPE":0,"CLASSIFICATION_TYPE":"U","NORAD_CAT_ID":47270,"ELEMENT_SET_NO":999,"REV_AT_EPOCH":25592,"BSTAR":0.0013984,"MEAN_MOTION_DOT":5.16e-06,"MEAN_MOTION_DDOT":0.0},{"OBJECT_NAME":"ONEWEB-0125","OBJECT_ID":"2020-100P","EPOCH":"2026-04-12T03:40:39.897120","MEAN_MOTION":13.12443258,"ECCENTRICITY":0.0001673,"INCLINATION":87.9014,"RA_OF_ASC_NODE":3.769,"ARG_OF_PERICENTER":89.264,"MEAN_ANOMALY":270.868,"EPHEMERIS_TYPE":0,"CLASSIFICATION_TYPE":"U","NORAD_CAT_ID":47271,"ELEMENT_SET_NO":999,"REV_AT_EPOCH":25597,"BSTAR":-0.00016325,"MEAN_MOTION_DOT":-4.6e-07,"MEAN_MOTION_DDOT":0.0},{"OBJECT_NAME":"ONEWEB-0126","OBJECT_ID":"2020-100Q","EPOCH":"2026-04-12T02:20:21.428736","MEAN_MOTION":13.12441366,"ECCENTRICITY":0.0001753,"INCLINATION":87.9007,"RA_OF_ASC_NODE":3.8004,"ARG_OF_PERICENTER":75.0724,"MEAN_ANOMALY":285.0599,"EPHEMERIS_TYPE":0,"CLASSIFICATION_TYPE":"U","NORAD_CAT_ID":47272,"ELEMENT_SET_NO":999,"REV_AT_EPOCH":25603,"BSTAR":0.0010806000000000001,"MEAN_MOTION_DOT":4.01e-06,"MEAN_MOTION_DDOT":0.0},{"OBJECT_NAME":"ONEWEB-0127","OBJECT_ID":"2020-100R","EPOCH":"2026-04-12T03:21:08.621568","MEAN_MOTION":13.12442421,"ECCENTRICITY":0.0001846,"INCLINATION":87.9003,"RA_OF_ASC_NODE":3.794,"ARG_OF_PERICENTER":74.705,"MEAN_ANOMALY":285.4282,"EPHEMERIS_TYPE":0,"CLASSIFICATION_TYPE":"U","NORAD_CAT_ID":47273,"ELEMENT_SET_NO":999,"REV_AT_EPOCH":25606,"BSTAR":-0.00099973,"MEAN_MOTION_DOT":-3.47e-06,"MEAN_MOTION_DDOT":0.0},{"OBJECT_NAME":"ONEWEB-0128","OBJECT_ID":"2020-100S","EPOCH":"2026-04-12T03:52:51.779424","MEAN_MOTION":13.12442717,"ECCENTRICITY":0.0002108,"INCLINATION":87.9001,"RA_OF_ASC_NODE":3.8035,"ARG_OF_PERICENTER":81.1694,"MEAN_ANOMALY":278.9673,"EPHEMERIS_TYPE":0,"CLASSIFICATION_TYPE":"U","NORAD_CAT_ID":47274,"ELEMENT_SET_NO":999,"REV_AT_EPOCH":25608,"BSTAR":0.00076886,"MEAN_MOTION_DOT":2.89e-06,"MEAN_MOTION_DDOT":0.0},{"OBJECT_NAME":"ONEWEB-0129","OBJECT_ID":"2020-100T","EPOCH":"2026-04-12T03:23:34.339488","MEAN_MOTION":13.12442156,"ECCENTRICITY":0.0001991,"INCLINATION":87.9013,"RA_OF_ASC_NODE":3.7742,"ARG_OF_PERICENTER":43.9986,"MEAN_ANOMALY":316.1301,"EPHEMERIS_TYPE":0,"CLASSIFICATION_TYPE":"U","NORAD_CAT_ID":47275,"ELEMENT_SET_NO":999,"REV_AT_EPOCH":25601,"BSTAR":-0.0010131,"MEAN_MOTION_DOT":-3.52e-06,"MEAN_MOTION_DDOT":0.0},{"OBJECT_NAME":"ONEWEB-0130","OBJECT_ID":"2020-100U","EPOCH":"2026-04-12T04:02:37.231872","MEAN_MOTION":13.12442574,"ECCENTRICITY":0.0001881,"INCLINATION":87.9011,"RA_OF_ASC_NODE":3.7637,"ARG_OF_PERICENTER":76.4062,"MEAN_ANOMALY":283.7276,"EPHEMERIS_TYPE":0,"CLASSIFICATION_TYPE":"U","NORAD_CAT_ID":47276,"ELEMENT_SET_NO":999,"REV_AT_EPOCH":25598,"BSTAR":0.0012974,"MEAN_MOTION_DOT":4.79e-06,"MEAN_MOTION_DDOT":0.0},{"OBJECT_NAME":"ONEWEB-0131","OBJECT_ID":"2020-100V","EPOCH":"2026-04-12T03:57:44.435232","MEAN_MOTION":13.12443096,"ECCENTRICITY":0.0001827,"INCLINATION":87.9001,"RA_OF_ASC_NODE":3.7898,"ARG_OF_PERICENTER":78.2303,"MEAN_ANOMALY":281.903,"EPHEMERIS_TYPE":0,"CLASSIFICATION_TYPE":"U","NORAD_CAT_ID":47277,"ELEMENT_SET_NO":999,"REV_AT_EPOCH":25602,"BSTAR":0.0010115,"MEAN_MOTION_DOT":3.77e-06,"MEAN_MOTION_DDOT":0.0}]